INTELSAT 902 (IS-902)   
1 26900U 01039A   26177.13794713 -.00000278  00000+0  00000+0 0  9994
2 26900   6.1388  71.6744 0004209  23.6382 178.5113  1.00271695 90784
INTELSAT 904 (IS-904)   
1 27380U 02007A   26177.11700990 -.00000221  00000+0  00000+0 0  9993
2 27380   6.9421  69.0793 0006534  10.4968 205.3016  1.00273226 51853
DIRECTV 5 (TEMPO 1)     
1 27426U 02023A   26176.78437416 -.00000051  00000+0  00000+0 0  9995
2 27426   4.8997  75.2077 0003506  26.5739 344.4102  1.00272965 88213
INTELSAT 905 (IS-905)   
1 27438U 02027A   26177.20897497  .00000098  00000+0  00000+0 0  9999
2 27438   6.7759  69.6935 0004137  25.9966 116.6677  1.00271747 51458
GALAXY 3C (G-3C)        
1 27445U 02030A   26177.19426329 -.00000145  00000+0  00000+0 0  9995
2 27445   3.7557  77.8632 0001949  25.0083 146.5460  1.00272425 46587
INTELSAT 906 (IS-906)   
1 27513U 02041A   26177.17934617  .00000018  00000+0  00000+0 0  9993
2 27513   5.8247  72.8110 0004227   6.8820 323.3205  1.00272027 87110
GALAXY 13 (HORIZONS-1)  
1 27954U 03044A   26177.21297933  .00000142  00000+0  00000+0 0  9992
2 27954   1.4419  83.7489 0001735   2.7038 114.5561  1.00269427 46669
INTELSAT 10-02          
1 28358U 04022A   26177.02380453  .00000000  00000+0  00000+0 0  9990
2 28358   0.0267 285.6566 0000298 220.1739 135.8915  1.00271201 80648
DIRECTV 8               
1 28659U 05019A   26177.22467911  .00000012  00000+0  00000+0 0  9991
2 28659   0.0199  67.0849 0003274  31.4852 137.6167  1.00271532 77167
GALAXY 28 (G-28)        
1 28702U 05022A   26177.15046030 -.00000192  00000+0  00000+0 0  9991
2 28702   3.3209  78.8235 0002289  14.9762 207.5483  1.00271220 52068
GALAXY 16 (G-16)        
1 29236U 06023A   26177.16016714 -.00000116  00000+0  00000+0 0  9999
2 29236   0.0426 130.7904 0002879 312.0411 150.1052  1.00272152 73068
DIRECTV 9S              
1 29494U 06043A   26177.16016714 -.00000105  00000+0  00000+0 0  9995
2 29494   2.4439  80.8038 0005394  18.1202 131.8219  1.00271817 51473
GALAXY 17 (G-17)        
1 31307U 07016B   26177.15461479 -.00000198  00000+0  00000+0 0  9995
2 31307   2.9946  79.7941 0004572  18.8821 146.2589  1.00271448 69893
INTELSAT 11 (IS-11)     
1 32253U 07044B   26177.04122514  .00000011  00000+0  00000+0 0  9992
2 32253   3.5884  78.5692 0002990  84.1881 213.1515  0.99047894 68532
HORIZONS-2              
1 32388U 07063B   26177.17727480 -.00000245  00000+0  00000+0 0  9999
2 32388   2.6252  80.5227 0004155   5.6694 178.1316  1.00271537 67907
DIRECTV 11              
1 32729U 08013A   26176.81458360 -.00000115  00000+0  00000+0 0  9998
2 32729   0.0131 250.3796 0000120 233.1459 344.4850  1.00273137 45687
GALAXY 18 (G-18)        
1 32951U 08024A   26177.22253958  .00000000  00000+0  00000+0 0  9991
2 32951   0.0246  12.4047 0003258  85.9267 133.1402  1.00269729 45949
GALAXY 19 (G-19)        
1 33376U 08045A   26177.16016714 -.00000128  00000+0  00000+0 0  9998
2 33376   0.0436 260.9287 0002890 202.3579 131.6626  1.00271315 64991
FM-5                    
1 35493U 09034A   26176.86436471 -.00000189  00000+0  00000+0 0  9998
2 35493   0.0233 289.3676 0000924  60.9599 148.6736  1.00270168 46738
INTELSAT 14 (IS-14)     
1 36097U 09064A   26177.15767940 -.00000262  00000+0  00000+0 0  9995
2 36097   0.0177  14.9613 0002669  79.0710 192.0185  1.00272699 60696
INTELSAT 15 (IS-15)     
1 36106U 09067A   26177.18341953 -.00000174  00000+0  00000+0 0  9996
2 36106   0.0114  42.1808 0002515  56.4830 326.8291  1.00271643 41310
DIRECTV 12              
1 36131U 09075A   26176.93240065 -.00000093  00000+0  00000+0 0  9997
2 36131   0.0496 173.6036 0000363 307.2864  26.1119  1.00271942 46649
INTELSAT 16 (IS-16)     
1 36397U 10006A   26177.14906012 -.00000234  00000+0  00000+0 0  9999
2 36397   0.0115  31.3827 0002381  77.1110 143.2428  1.00272499 59745
XM-5                    
1 37185U 10053A   26176.92997397 -.00000013  00000+0  00000+0 0  9993
2 37185   0.0631 271.4123 0002666 286.2712 295.9726  1.00274842 57576
INTELSAT 17 (IS-17)     
1 37238U 10065B   26177.10840243  .00000009  00000+0  00000+0 0  9997
2 37238   0.0086  69.5097 0002464  24.6648 285.0863  1.00271818 53335
INTELSAT 28 (IS-28)     
1 37392U 11016A   26177.19944433 -.00000216  00000+0  00000+0 0  9991
2 37392   1.8295  82.5212 0004006  11.1010 220.7734  1.00271814 53372
INTELSAT 18 (IS-18)     
1 37834U 11056A   26177.13095453  .00000064  00000+0  00000+0 0  9999
2 37834   0.0160 297.9044 0002067 160.8181  42.6714  1.00272913 53905
INTELSAT 22 (IS-22)     
1 38098U 12011A   26177.18090617  .00000000  00000+0  00000+0 0  9996
2 38098   0.0360  53.5740 0001763  73.2734 284.6951  1.00270696  7278
INTELSAT 19 (IS-19)     
1 38356U 12030A   26176.81086448 -.00000046  00000+0  00000+0 0  9991
2 38356   0.0176   9.4438 0003304  90.8659 271.5512  1.00271196 50539
INTELSAT 20 (IS-20)     
1 38740U 12043A   26176.82377711 -.00000014  00000+0  00000+0 0  9994
2 38740   0.0023  27.0596 0002255 149.8040 102.1505  1.00273172 50831
INTELSAT 21 (IS-21)     
1 38749U 12045A   26177.22032502 -.00000274  00000+0  00000+0 0  9994
2 38749   0.0238  68.5437 0001792  38.3132 188.8088  1.00271980 50619
